SAUDISAT 1C (SO-50)     
1 27607U 02058C   26156.35454122  .00001035  00000+0  13927-3 0  9996
2 27607  64.5503 165.5947 0075495 264.6340  94.6150 14.83020070262706
SAUDISAT 2              
1 28371U 04025F   26156.28308514  .00000302  00000+0  78524-4 0  9997
2 28371  98.5506 155.9575 0024187 336.1043  23.9030 14.56676563164013
SAUDISAT 3              
1 31118U 07012B   26156.42628424  .00000324  00000+0  60586-4 0  9993
2 31118  98.1451 106.8196 0013251 264.7052  95.2643 14.71418542 26018
PISAT                   
1 41784U 16059B   26156.29181750  .00000975  00000+0  17358-3 0  9995
2 41784  97.8178 157.2560 0027624 242.2192 117.6213 14.68961871517998
FLYING LAPTOP           
1 42831U 17042G   26156.72011398  .00002971  00000+0  23599-3 0  9992
2 42831  97.4644 312.6984 0018889 159.2943 200.9051 15.01066979484731
SALSAT                  
1 46495U 20068K   26155.97862976  .00008911  00000+0  31300-3 0  9995
2 46495  97.8851 158.3021 0009245 356.4519   3.6652 15.29615280313492
